start=new Date('2022-08-04T00:00:00.000Z').valueOf();
sats=[{"MEAN_ELEMENT_THEORY":"SGP4","NORAD_CAT_ID":"46334","SITE":"AFETR","MEAN_MOTION":"15.06394672","APOAPSIS":"548.641","TIME_SYSTEM":"UTC","FILE":"3527880","ELEMENT_SET_NO":"999","OBJECT_ID":"2020-062K","PERIOD":"95.592","SEMIMAJOR_AXIS":"6925.365","CENTER_NAME":"EARTH","PERIAPSIS":"545.818","TLE_LINE2":"2 46334  53.0551 138.1382 0002038  68.1535 291.9671 15.06394672106632","OBJECT_NAME":"STARLINK-1725","RCS_SIZE":"LARGE","GP_ID":"209460745","TLE_LINE1":"1 46334U 20062K   22215.13961738  .00000170  00000-0  30340-4 0  9992","CLASSIFICATION_TYPE":"U","OBJECT_TYPE":"PAYLOAD","ECCENTRICITY":"0.00020380","EPHEMERIS_TYPE":"0","INCLINATION":"53.0551","MEAN_MOTION_DOT":"0.00000170","REF_FRAME":"TEME","ARG_OF_PERICENTER":"68.1535","LAUNCH_DATE":"2020-09-03","EPOCH":"2022-08-03T03:21:02.941632","MEAN_ANOMALY":"291.9671","COUNTRY_CODE":"US","RA_OF_ASC_NODE":"138.1382","REV_AT_EPOCH":"10663","DECAY_DATE":null,"BSTAR":"0.00003034000000","MEAN_MOTION_DDOT":"0.0000000000000"},{"LAUNCH_DATE":"2020-09-03","EPOCH":"2022-08-03T02:25:15.902400","ARG_OF_PERICENTER":"73.8035","EPHEMERIS_TYPE":"0","INCLINATION":"53.0545","MEAN_MOTION_DOT":"-0.00000112","REF_FRAME":"TEME","ECCENTRICITY":"0.00021510","DECAY_DATE":null,"BSTAR":"0.00001139000000","MEAN_MOTION_DDOT":"0.0000000000000","REV_AT_EPOCH":"10617","RA_OF_ASC_NODE":"158.0511","MEAN_ANOMALY":"286.3191","COUNTRY_CODE":"US","PERIOD":"95.592","SEMIMAJOR_AXIS":"6925.359","APOAPSIS":"548.713","TIME_SYSTEM":"UTC","MEAN_MOTION":"15.06396752","FILE":"3528364","ELEMENT_SET_NO":"999","OBJECT_ID":"2020-062L","MEAN_ELEMENT_THEORY":"SGP4","NORAD_CAT_ID":"46335","SITE":"AFETR","TLE_LINE1":"1 46335U 20062L   22215.10087850 -.00000112  00000-0  11390-4 0  9995","CLASSIFICATION_TYPE":"U","OBJECT_TYPE":"PAYLOAD","GP_ID":"209491053","RCS_SIZE":"LARGE","CENTER_NAME":"EARTH","PERIAPSIS":"545.734","TLE_LINE2":"2 46335  53.0545 158.0511 0002151  73.8035 286.3191 15.06396752106170","OBJECT_NAME":"STARLINK-1727"},{"COUNTRY_CODE":"US","MEAN_ANOMALY":"292.9233","RA_OF_ASC_NODE":"136.2878","REV_AT_EPOCH":"10669","DECAY_DATE":null,"BSTAR":"0.00003399500000","MEAN_MOTION_DDOT":"0.0000000000000","ECCENTRICITY":"0.00018220","MEAN_MOTION_DOT":"0.00000225","REF_FRAME":"TEME","EPHEMERIS_TYPE":"0","INCLINATION":"53.0538","ARG_OF_PERICENTER":"67.1948","EPOCH":"2022-08-03T11:45:13.408128","LAUNCH_DATE":"2020-09-03","OBJECT_NAME":"STARLINK-1738","CENTER_NAME":"EARTH","PERIAPSIS":"545.950","TLE_LINE2":"2 46336  53.0538 136.2878 0001822  67.1948 292.9233 15.06400537106694","RCS_SIZE":"LARGE","GP_ID":"209498828","OBJECT_TYPE":"PAYLOAD","TLE_LINE1":"1 46336U 20062M   22215.48973852  .00000225  00000-0  33995-4 0  9992","CLASSIFICATION_TYPE":"U","NORAD_CAT_ID":"46336","SITE":"AFETR","MEAN_ELEMENT_THEORY":"SGP4","FILE":"3528451","ELEMENT_SET_NO":"999","OBJECT_ID":"2020-062M","APOAPSIS":"548.474","TIME_SYSTEM":"UTC","MEAN_MOTION":"15.06400537","PERIOD":"95.592","SEMIMAJOR_AXIS":"6925.347"},{"PERIOD":"95.593","SEMIMAJOR_AXIS":"6925.371","MEAN_ELEMENT_THEORY":"SGP4","NORAD_CAT_ID":"46337","SITE":"AFETR","APOAPSIS":"548.611","TIME_SYSTEM":"UTC","MEAN_MOTION":"15.06392745","FILE":"3527881","OBJECT_ID":"2020-062N","ELEMENT_SET_NO":"999","GP_ID":"209460749","CLASSIFICATION_TYPE":"U","TLE_LINE1":"1 46337U 20062N   22215.17275833 -.00002225  00000-0 -13054-3 0  9990","OBJECT_TYPE":"PAYLOAD","TLE_LINE2":"2 46337  53.0546 137.7234 0001986  54.3933 305.7241 15.06392745106647","CENTER_NAME":"EARTH","PERIAPSIS":"545.860","OBJECT_NAME":"STARLINK-1750","RCS_SIZE":"LARGE","ARG_OF_PERICENTER":"54.3933","LAUNCH_DATE":"2020-09-03","EPOCH":"2022-08-03T04:08:46.319712","ECCENTRICITY":"0.00019860","EPHEMERIS_TYPE":"0","INCLINATION":"53.0546","REF_FRAME":"TEME","MEAN_MOTION_DOT":"-0.00002225","RA_OF_ASC_NODE":"137.7234","REV_AT_EPOCH":"10664","MEAN_MOTION_DDOT":"0.0000000000000","DECAY_DATE":null,"BSTAR":"-0.00013054000000","MEAN_ANOMALY":"305.7241","COUNTRY_CODE":"US"},{"CENTER_NAME":"EARTH","PERIAPSIS":"545.881","TLE_LINE2":"2 46338  53.0561 156.0154 0001943  69.3718 290.7480 15.06395882106418","OBJECT_NAME":"STARLINK-1752","RCS_SIZE":"LARGE","GP_ID":"209498823","TLE_LINE1":"1 46338U 20062P   22215.55424738  .00001468  00000-0  11747-3 0  9996","CLASSIFICATION_TYPE":"U","OBJECT_TYPE":"PAYLOAD","MEAN_ELEMENT_THEORY":"SGP4","SITE":"AFETR","NORAD_CAT_ID":"46338","APOAPSIS":"548.572","TIME_SYSTEM":"UTC","MEAN_MOTION":"15.06395882","OBJECT_ID":"2020-062P","FILE":"3528451","ELEMENT_SET_NO":"999","PERIOD":"95.592","SEMIMAJOR_AXIS":"6925.361","MEAN_ANOMALY":"290.7480","COUNTRY_CODE":"US","REV_AT_EPOCH":"10641","RA_OF_ASC_NODE":"156.0154","DECAY_DATE":null,"BSTAR":"0.00011747000000","MEAN_MOTION_DDOT":"0.0000000000000","ECCENTRICITY":"0.00019430","EPHEMERIS_TYPE":"0","INCLINATION":"53.0561","MEAN_MOTION_DOT":"0.00001468","REF_FRAME":"TEME","ARG_OF_PERICENTER":"69.3718","LAUNCH_DATE":"2020-09-03","EPOCH":"2022-08-03T13:18:06.973632"},{"MEAN_ANOMALY":"293.9394","COUNTRY_CODE":"US","RA_OF_ASC_NODE":"157.3243","REV_AT_EPOCH":"10618","MEAN_MOTION_DDOT":"0.0000000000000","DECAY_DATE":null,"BSTAR":"0.00000034421000","ECCENTRICITY":"0.00021840","EPHEMERIS_TYPE":"0","INCLINATION":"53.0545","REF_FRAME":"TEME","MEAN_MOTION_DOT":"-0.00000277","ARG_OF_PERICENTER":"66.1824","LAUNCH_DATE":"2020-09-03","EPOCH":"2022-08-03T06:18:48.460032","TLE_LINE2":"2 46340  53.0545 157.3243 0002184  66.1824 293.9394 15.06398616106188","CENTER_NAME":"EARTH","PERIAPSIS":"545.705","OBJECT_NAME":"STARLINK-1759","RCS_SIZE":"LARGE","GP_ID":"209490553","CLASSIFICATION_TYPE":"U","TLE_LINE1":"1 46340U 20062R   22215.26306088 -.00000277  00000-0  34421-6 0  9999","OBJECT_TYPE":"PAYLOAD","MEAN_ELEMENT_THEORY":"SGP4","NORAD_CAT_ID":"46340","SITE":"AFETR","TIME_SYSTEM":"UTC","APOAPSIS":"548.730","MEAN_MOTION":"15.06398616","FILE":"3528364","ELEMENT_SET_NO":"999","OBJECT_ID":"2020-062R","SEMIMAJOR_AXIS":"6925.353","PERIOD":"95.592"},{"RCS_SIZE":"LARGE","OBJECT_NAME":"STARLINK-1760","CENTER_NAME":"EARTH","PERIAPSIS":"545.791","TLE_LINE2":"2 46341  53.0569 137.5936 0002074  75.1109 285.0109 15.06395474106475","OBJECT_TYPE":"PAYLOAD","TLE_LINE1":"1 46341U 20062S   22215.20224128 -.00001194  00000-0 -61233-4 0  9997","CLASSIFICATION_TYPE":"U","GP_ID":"209491304","OBJECT_ID":"2020-062S","FILE":"3528364","ELEMENT_SET_NO":"999","APOAPSIS":"548.664","MEAN_MOTION":"15.06395474","TIME_SYSTEM":"UTC","SITE":"AFETR","NORAD_CAT_ID":"46341","MEAN_ELEMENT_THEORY":"SGP4","SEMIMAJOR_AXIS":"6925.362","PERIOD":"95.592","COUNTRY_CODE":"US","MEAN_ANOMALY":"285.0109","BSTAR":"-0.00006123300000","DECAY_DATE":null,"MEAN_MOTION_DDOT":"0.0000000000000","REV_AT_EPOCH":"10647","RA_OF_ASC_NODE":"137.5936","MEAN_MOTION_DOT":"-0.00001194","REF_FRAME":"TEME","EPHEMERIS_TYPE":"0","INCLINATION":"53.0569","ECCENTRICITY":"0.00020740","EPOCH":"2022-08-03T04:51:13.646592","LAUNCH_DATE":"2020-09-03","ARG_OF_PERICENTER":"75.1109"},{"SITE":"AFETR","NORAD_CAT_ID":"46342","MEAN_ELEMENT_THEORY":"SGP4","FILE":"3528364","ELEMENT_SET_NO":"999","OBJECT_ID":"2020-062T","APOAPSIS":"548.593","MEAN_MOTION":"15.06389229","TIME_SYSTEM":"UTC","PERIOD":"95.593","SEMIMAJOR_AXIS":"6925.382","OBJECT_NAME":"STARLINK-1762","CENTER_NAME":"EARTH","PERIAPSIS":"545.900","TLE_LINE2":"2 46342  53.0561 157.3708 0001944  69.2982 290.8216 15.06389229106196","RCS_SIZE":"LARGE","GP_ID":"209492053","OBJECT_TYPE":"PAYLOAD","TLE_LINE1":"1 46342U 20062T   22215.24832183  .00000017  00000-0  20088-4 0  9992","CLASSIFICATION_TYPE":"U","ECCENTRICITY":"0.00019440","MEAN_MOTION_DOT":"0.00000017","REF_FRAME":"TEME","INCLINATION":"53.0561","EPHEMERIS_TYPE":"0","ARG_OF_PERICENTER":"69.2982","EPOCH":"2022-08-03T05:57:35.006112","LAUNCH_DATE":"2020-09-03","COUNTRY_CODE":"US","MEAN_ANOMALY":"290.8216","REV_AT_EPOCH":"10619","RA_OF_ASC_NODE":"157.3708","BSTAR":"0.00002008800000","DECAY_DATE":null,"MEAN_MOTION_DDOT":"0.0000000000000"},{"MEAN_ELEMENT_THEORY":"SGP4","SITE":"AFETR","NORAD_CAT_ID":"46343","TIME_SYSTEM":"UTC","APOAPSIS":"548.489","MEAN_MOTION":"15.06393620","FILE":"3528364","ELEMENT_SET_NO":"999","OBJECT_ID":"2020-062U","SEMIMAJOR_AXIS":"6925.368","PERIOD":"95.593","PERIAPSIS":"545.977","CENTER_NAME":"EARTH","TLE_LINE2":"2 46343  53.0540 137.7077 0001814  70.2833 289.8352 15.06393620106467","OBJECT_NAME":"STARLINK-1764","RCS_SIZE":"LARGE","GP_ID":"209491753","TLE_LINE1":"1 46343U 20062U   22215.17643820  .00000446  00000-0  48837-4 0  9991","CLASSIFICATION_TYPE":"U","OBJECT_TYPE":"PAYLOAD","ECCENTRICITY":"0.00018140","EPHEMERIS_TYPE":"0","INCLINATION":"53.0540","MEAN_MOTION_DOT":"0.00000446","REF_FRAME":"TEME","ARG_OF_PERICENTER":"70.2833","LAUNCH_DATE":"2020-09-03","EPOCH":"2022-08-03T04:14:04.260480","MEAN_ANOMALY":"289.8352","COUNTRY_CODE":"US","RA_OF_ASC_NODE":"137.7077","REV_AT_EPOCH":"10646","BSTAR":"0.00004883700000","DECAY_DATE":null,"MEAN_MOTION_DDOT":"0.0000000000000"},{"GP_ID":"209491054","TLE_LINE1":"1 46344U 20062V   22215.19486414  .00000596  00000-0  58929-4 0  9997","CLASSIFICATION_TYPE":"U","OBJECT_TYPE":"PAYLOAD","CENTER_NAME":"EARTH","PERIAPSIS":"545.696","TLE_LINE2":"2 46344  53.0552 137.6262 0002171  64.4800 295.6413 15.06404490106463","OBJECT_NAME":"STARLINK-1765","RCS_SIZE":"LARGE","PERIOD":"95.592","SEMIMAJOR_AXIS":"6925.335","MEAN_ELEMENT_THEORY":"SGP4","NORAD_CAT_ID":"46344","SITE":"AFETR","MEAN_MOTION":"15.06404490","APOAPSIS":"548.703","TIME_SYSTEM":"UTC","ELEMENT_SET_NO":"999","FILE":"3528364","OBJECT_ID":"2020-062V","REV_AT_EPOCH":"10646","RA_OF_ASC_NODE":"137.6262","DECAY_DATE":null,"BSTAR":"0.00005892900000","MEAN_MOTION_DDOT":"0.0000000000000","MEAN_ANOMALY":"295.6413","COUNTRY_CODE":"US","ARG_OF_PERICENTER":"64.4800","LAUNCH_DATE":"2020-09-03","EPOCH":"2022-08-03T04:40:36.261696","ECCENTRICITY":"0.00021710","INCLINATION":"53.0552","EPHEMERIS_TYPE":"0","MEAN_MOTION_DOT":"0.00000596","REF_FRAME":"TEME"}];
